[{"OBJECT_NAME":"STARLINK-35169","OBJECT_ID":"2025-195H","EPOCH":"2026-03-09T21:38:10.149504","MEAN_MOTION":15.30195215,"ECCENTRICITY":0.00011095,"INCLINATION":53.1599,"RA_OF_ASC_NODE":257.3744,"ARG_OF_PERICENTER":89.4678,"MEAN_ANOMALY":270.645,"EPHEMERIS_TYPE":0,"CLASSIFICATION_TYPE":"U","NORAD_CAT_ID":65465,"ELEMENT_SET_NO":999,"REV_AT_EPOCH":3002,"BSTAR":0.0011498812,"MEAN_MOTION_DOT":0.00033847,"MEAN_MOTION_DDOT":0},{"OBJECT_NAME":"USA 55","OBJECT_ID":"1990-028B","EPOCH":"2026-03-09T23:32:27.967200","MEAN_MOTION":15.43003152,"ECCENTRICITY":0.00579189,"INCLINATION":94.0887,"RA_OF_ASC_NODE":87.6293,"ARG_OF_PERICENTER":152.9949,"MEAN_ANOMALY":207.4341,"EPHEMERIS_TYPE":0,"CLASSIFICATION_TYPE":"U","NORAD_CAT_ID":20547,"ELEMENT_SET_NO":999,"REV_AT_EPOCH":98658,"BSTAR":0.00013659834,"MEAN_MOTION_DOT":6.373e-5,"MEAN_MOTION_DDOT":0}]
